STARLINK-1783
1 16686C 20073S   21326.15259752  .00003906  00000-0  26172-3 0  3265
2 16686  53.0536  98.0527 0001348  73.0812 217.2056 15.06391778    13
